TELKOM 2                
1 28902U 05046A   20268.61329110 -.00000160  00000-0  00000-0 0  9995
2 28902   0.0172 248.8549 0001356 197.9458 294.8725  1.00270909 54465
SPACEWAY 2              
1 28903U 05046B   20268.57415265  .00000083  00000-0  00000-0 0  9991
2 28903   0.4152  92.2136 0001761 154.1616 185.2821  1.00271925 30364
METEOSAT-9 (MSG-2)      
1 28912U 05049B   20268.21785675 -.00000002  00000-0  00000-0 0  9992
2 28912   4.6312  69.7084 0001149  36.9982 338.4928  1.00271262 54069
EUTELSAT 174A           
1 28924U 05052A   20268.62410646 -.00000012  00000-0  00000-0 0  9998
2 28924   0.0654  12.9846 0006353 169.4724 220.1237  1.00272294 31358
ECHOSTAR 10             
1 28935U 06003A   20268.35711772 -.00000076  00000-0  00000-0 0  9991
2 28935   0.0095 143.3258 0001720  70.0512 168.6357  1.00272906 53500
SPAINSAT                
1 28945U 06007A   20268.07390940 -.00000236  00000-0  00000-0 0  9993
2 28945   0.0308 230.5603 0005379 321.3166 168.1194  1.00272069 53247
EUTELSAT HOT BIRD 13E   
1 28946U 06007B   20268.54620594  .00000066  00000-0  00000-0 0  9997
2 28946   0.0785 253.0389 0007190 292.5932  27.8295  1.00271567 53336
JCSAT-5A                
1 29045U 06010A   20268.57002135 -.00000349  00000-0  00000-0 0  9995
2 29045   0.0103 202.9682 0002730 344.5338 153.6197  1.00272759 52784
ASTRA 1KR               
1 29055U 06012A   20268.18853850  .00000099  00000-0  00000-0 0  9994
2 29055   0.0446 262.1806 0004564 297.6479 250.7171  1.00270048 52760
GOES 13                 
1 29155U 06018A   20268.48409397  .00000017  00000-0  00000-0 0  9997
2 29155   0.1057 136.6236 0008552  67.7180  35.0287  1.00273898 22392
EUTELSAT 113 WEST A     
1 29162U 06020A   20268.56646675 -.00000059  00000-0  00000-0 0  9996
2 29162   0.0164 110.1519 0003044  76.4060 268.2364  1.00272552 52513
GALAXY 16 (G-16)        
1 29236U 06023A   20268.57551598 -.00000148  00000-0  00000-0 0  9990
2 29236   0.0077 158.1579 0002695  11.3424 302.5564  1.00270487 52192
EUTELSAT HOT BIRD 13B   
1 29270U 06032A   20268.54620594  .00000065  00000-0  00000-0 0  9995
2 29270   0.1022 316.3214 0002215 232.9906  24.1552  1.00269876 26330
JCSAT-3A                
1 29272U 06033A   20268.57688391 -.00000367  00000-0  00000-0 0  9996
2 29272   0.0179 138.6389 0002660  45.3373 155.5610  1.00269945 26768
SYRACUSE 3B             
1 29273U 06033B   20268.32724361 -.00000064  00000-0  00000-0 0  9992
2 29273   0.0174 198.9366 0005320 331.3307 305.9886  1.00274911 51739
KOREASAT 5 (MUGUNGWHA 5)
1 29349U 06034A   20268.58243799 -.00000380  00000-0  00000-0 0  9997
2 29349   0.0114 173.1606 0001828  23.0702 130.3707  1.00270652 20345
DIRECTV 9S              
1 29494U 06043A   20268.59736822 -.00000134  00000-0  00000-0 0  9990
2 29494   0.0160 188.1425 0002998 352.0903 297.5007  1.00271635 30420
OPTUS D1                
1 29495U 06043B   20268.61489708 -.00000132  00000-0  00000-0 0  9990
2 29495   0.0169 231.3462 0003533 305.1391 208.7764  1.00271847 51149
XM-4 (BLUES)            
1 29520U 06049A   20268.35422478 -.00000043  00000-0  00000-0 0  9998
2 29520   0.0111 181.9894 0000429 280.7615 273.1414  1.00271756 30494
BADR-4                  
1 29526U 06051A   20268.54882302  .00000123  00000-0  00000-0 0  9992
2 29526   0.0499 344.9585 0003465 239.9978   2.4136  1.00272381 30307
WILDBLUE-1              
1 29643U 06054A   20268.48249086 -.00000070  00000-0  00000-0 0  9996
2 29643   0.0143 197.2684 0001692 338.9644 250.0480  1.00271905 32825
AMC-18                  
1 29644U 06054B   20268.54837977  .00000083  00000-0  00000-0 0  9999
2 29644   0.0153 180.1285 0002678 347.1649 254.9447  1.00271461 50606
MEASAT-3                
1 29648U 06056A   20268.56190840 -.00000263  00000-0  00000-0 0  9999
2 29648   0.0407 133.3204 0003756  34.2105 130.1177  1.00271954 29497
INSAT-4B                
1 30793U 07007A   20268.56068709 -.00000210  00000-0  00000-0 0  9999
2 30793   0.6742  96.5287 0005486 126.5247  68.1317  1.00270389 21234
SKYNET 5A               
1 30794U 07007B   20268.56260628 -.00000293  00000-0  00000-0 0  9995
2 30794   0.7957  91.0068 0003594  98.7477 111.8693  1.00272133 49720
ANIK F3                 
1 31102U 07009A   20268.56271005 -.00000023  00000-0  00000-0 0  9993
2 31102   0.0202 253.4959 0002041 286.6736 267.5658  1.00274978 25582
ASTRA 1L                
1 31306U 07016A   20268.25743781  .00000099  00000-0  00000-0 0  9990
2 31306   0.0573 310.1458 0002335 276.9044 248.3765  1.00269861 24067
GALAXY 17 (G-17)        
1 31307U 07016B   20268.52553104 -.00000195  00000-0  00000-0 0  9997
2 31307   0.0161  95.7482 0003727  92.6954 273.5719  1.00271741 48978
ZHONGXING-6B            
1 31800U 07031A   20268.58243799 -.00000383  00000-0  00000-0 0  9993
2 31800   0.0262 249.1285 0003664 297.7368 142.1551  1.00267632 48453
DIRECTV 10              
1 31862U 07032A   20268.24119810 -.00000124  00000-0  00000-0 0  9994
2 31862   0.0452 354.0857 0000112 154.2018 199.3321  1.00272291 24637
SPACEWAY 3              
1 32018U 07036A   20268.30519277 -.00000172  00000-0  00000-0 0  9993
2 32018   0.0082  79.3449 0000157 159.3792 139.8011  1.00271567 25572
BSAT-3A                 
1 32019U 07036B   20268.52439601 -.00000372  00000-0  00000-0 0  9992
2 32019   0.0473 222.8572 0003880 340.7064  98.9085  1.00270488 29541
INSAT-4CR               
1 32050U 07037A   20268.55318481  .00000104  00000-0  00000-0 0  9995
2 32050   1.5681  92.4012 0007616 152.9114   5.5526  1.00270608 30419
OPTUS D2                
1 32252U 07044A   20268.60980554 -.00000205  00000-0  00000-0 0  9992
2 32252   0.0173 116.7558 0003700  60.6553 198.0184  1.00271572 47596
INTELSAT 11 (IS-11)     
1 32253U 07044B   20268.31974132 -.00000289  00000-0  00000-0 0  9998
2 32253   0.0109 230.1383 0001571 335.3224 230.2752  1.00270960 47550
WGS F1 (USA 195)        
1 32258U 07046A   20268.36160559  .00000020  00000-0  00000-0 0  9992
2 32258   0.0160 161.0326 0000550 358.5047 340.2601  1.00270964 31403
STAR ONE C1             
1 32293U 07056A   20268.45888260 -.00000297  00000-0  00000-0 0  9995
2 32293   0.0197 200.7748 0002735 338.6115 284.5546  1.00270482 30809
SKYNET 5B               
1 32294U 07056B   20268.54864855  .00000121  00000-0  00000-0 0  9995
2 32294   0.0720  10.2047 0004225 181.3995  34.8454  1.00272370 47229
ASTRA 4A (SIRIUS 4)     
1 32299U 07057A   20268.32925003  .00000011  00000-0  00000+0 0  9997
2 32299   0.0365  85.2214 0003158  87.5694 314.1724  1.00271026 46987
HORIZONS 2              
1 32388U 07063B   20268.12991597 -.00000203  00000-0  00000-0 0  9997
2 32388   0.0179 152.5533 0002624  20.2990 322.1910  1.00271332 46875
THURAYA-3               
1 32404U 08001A   20268.41971368 -.00000321  00000-0  00000-0 0  9996
2 32404   3.7787  11.7200 0004285 158.1009  83.4979  1.00272240 46548
EXPRESS-AM33            
1 32478U 08003A   20268.27706081 -.00000301  00000-0  00000-0 0  9999
2 32478   0.0378 301.9068 0000739 359.9326 257.9527  1.00269313 46638
THOR 5                  
1 32487U 08006A   20268.32811597 -.00000030  00000-0  00000-0 0  9996
2 32487   0.0286 247.2221 0002449 290.4382 303.3261  1.00271199 46209
AMC-14                  
1 32708U 08011A   20264.59907035  .00000075  00000-0  00000+0 0  9993
2 32708  21.1144  46.2129 0036411   7.7610 179.6513  1.00271005 47082
DIRECTV 11              
1 32729U 08013A   20268.36280002 -.00000147  00000-0  00000+0 0  9996
2 32729   0.0353  23.1575 0000383 109.5936 262.3468  1.00271654 45967
ICO G1                  
1 32763U 08016A   20268.39536095 -.00000190  00000-0  00000-0 0  9995
2 32763   3.6600  14.8094 0002239 172.6969 225.6649  1.00271225 45610
VINASAT-1               
1 32767U 08018A   20268.49813896 -.00000350  00000-0  00000-0 0  9997
2 32767   0.0319 290.4892 0001980 258.6754 125.8925  1.00270083 45629
STAR ONE C2             
1 32768U 08018B   20268.52971837 -.00000286  00000-0  00000-0 0  9990
2 32768   0.0320 131.3587 0002783  50.8626 302.3117  1.00271541 45702
TIANLIAN 1-01           
1 32779U 08019A   20268.55955303 -.00000159  00000-0  00000-0 0  9995
2 32779   4.3356  72.1274 0028768 258.3543 314.7702  1.00273284 45443
AMOS-3                  
1 32794U 08022A   20268.32750531 -.00000056  00000-0  00000+0 0  9992
2 32794   0.0109 157.3062 0002095  18.4453 301.6359  1.00272796 45473
GALAXY 18 (G-18)        
1 32951U 08024A   20268.56000841  .00000004  00000-0  00000-0 0  9990
2 32951   0.0186 164.6947 0003307  19.6606 258.1003  1.00271204 24906
CHINASAT 9 (ZX 9)       
1 33051U 08028A   20268.56208288 -.00000269  00000-0  00000-0 0  9995
2 33051   0.0123 200.8470 0003729 342.1383 115.4291  1.00271844 45061
SKYNET 5C               
1 33055U 08030A   20268.39650892 -.00000161  00000-0  00000-0 0  9996
2 33055   0.0643 351.4606 0004333 190.5230 306.6223  1.00271055 44987
TURKSAT 3A              
1 33056U 08030B   20268.55205076  .00000124  00000-0  00000-0 0  9993
2 33056   0.0557  87.1129 0004446  75.3645  82.1147  1.00274745 31380
INTELSAT 25 (IS-25)     
1 33153U 08034A   20268.39380461 -.00000244  00000-0  00000-0 0  9993
2 33153   0.0117 192.2719 0002273 348.0678 293.6178  1.00273471 44758
BADR-6                  
1 33154U 08034B   20268.25188088  .00000124  00000-0  00000+0 0  9995
2 33154   0.0547  19.4173 0003037 142.1384 318.6457  1.00274029 44776
ECHOSTAR 11             
1 33207U 08035A   20268.56822780 -.00000078  00000-0  00000-0 0  9993
2 33207   0.0024 178.9237 0002669 352.4203 287.0780  1.00272342 30266
SUPERBIRD-C2            
1 33274U 08038A   20268.57237670 -.00000273  00000-0  00000-0 0  9996
2 33274   0.0256 130.1646 0002462  90.8784 132.8200  1.00270695 84755
AMC-21                  
1 33275U 08038B   20268.55901272  .00000015  00000-0  00000-0 0  9994
2 33275   0.0157 146.2960 0002432  31.7413 262.1393  1.00271530 44512
